ONEWEB-0665             
1 55825U 23029AF  25280.44732885  .00000094  00000+0  21784-3 0  9996
2 55825  87.9059 340.0740 0001656 106.1445 253.9868 13.14504768126203
ONEWEB-0666             
1 55826U 23029AG  25280.83926793  .00000184  00000+0  42142-3 0  9994
2 55826  87.9233 324.8122 0002606  89.8599 270.2833 13.20773802127844
ONEWEB-0667             
1 55827U 23029AH  25280.83295889  .00000097  00000+0  20654-3 0  9997
2 55827  87.9239 324.7423 0001711  99.0415 261.0912 13.20773523127835
ONEWEB-0669             
1 55828U 23029AJ  25280.82824333  .00000106  00000+0  22910-3 0  9997
2 55828  87.9233 324.7827 0001966  75.8321 284.3031 13.20772673127833
ONEWEB-0670             
1 55829U 23029AK  25280.57735727 -.00000101  00000+0 -30784-3 0  9993
2 55829  87.9063 340.0680 0001489  95.4363 264.6936 13.14501560126244
ONEWEB-0671             
1 55830U 23029AL  25280.66938676  .00000010  00000+0 -62072-5 0  9998
2 55830  87.9273 355.2125 0001679 101.7257 258.4064 13.19726297125596
ONEWEB-0672             
1 55831U 23029AM  25280.82350334  .00000019  00000+0  15689-4 0  9995
2 55831  87.9230 324.7650 0002138  91.4824 268.6554 13.20771466127836
ONEWEB-0673             
1 55832U 23029AN  25280.49405596  .00000017  00000+0  97099-5 0  9994
2 55832  87.9286 355.2169 0001930 106.7821 253.3524 13.19727986125571
